ORBCOMM FM20            
1 25416U 98046D   25144.83161180  .00000686  00000+0  27588-3 0  9991
2 25416  44.9947 291.8741 0001915 183.7110 176.3724 14.37172222400900
ORBCOMM FM16            
1 25417U 98046E   25144.85514780  .00000970  00000+0  35825-3 0  9991
2 25417  44.9942 283.6389 0005812 185.1336 174.9453 14.38858025400893
ORBCOMM FM15            
1 25418U 98046F   25144.82551660  .00000799  00000+0  30516-3 0  9998
2 25418  44.9975 288.8543 0005387 184.8859 175.1938 14.38504520400880
ORBCOMM FM14            
1 25419U 98046G   25144.84914223  .00000859  00000+0  32230-3 0  9991
2 25419  44.9964 287.0460 0004203 181.5615 178.5221 14.38860656400852
ORBCOMM FM13            
1 25420U 98046H   25144.80414295  .00000820  00000+0  31746-3 0  9992
2 25420  44.9979 295.0098 0006056 166.1132 193.9883 14.37627707399878
ORBCOMM FM21            
1 25475U 98053A   25144.87477414  .00000764  00000+0  30108-3 0  9997
2 25475  45.0098  19.8892 0001568  77.5890 282.5134 14.37307092393897
ORBCOMM FM22            
1 25476U 98053B   25144.92855549  .00000922  00000+0  34638-3 0  9991
2 25476  45.0088  14.6738 0003371  95.8003 264.3230 14.38334325393921
ORBCOMM FM23            
1 25477U 98053C   25144.94792686  .00000832  00000+0  32238-3 0  9990
2 25477  45.0096  21.6984 0002539  84.7316 275.3822 14.37485105394057
