<?xml version="1.0" encoding="UTF-8"?>
<ndm xmlns:xsi="http://www.w3.org/2001/XMLSchema-instance" xsi:noNamespaceSchemaLocation="https://sanaregistry.org/r/ndmxml_unqualified/ndmxml-2.0.0-master-2.0.xsd">
<omm id="CCSDS_OMM_VERS" version="2.0">
<header><CREATION_DATE/><ORIGINATOR/></header><body><segment><metadata><OBJECT_NAME>ORBCOMM FM20</OBJECT_NAME><OBJECT_ID>1998-046D</OBJECT_ID><CENTER_NAME>EARTH</CENTER_NAME><REF_FRAME>TEME</REF_FRAME><TIME_SYSTEM>UTC</TIME_SYSTEM><MEAN_ELEMENT_THEORY>SGP4</MEAN_ELEMENT_THEORY></metadata><data><meanElements><EPOCH>2025-05-24T19:57:31.259520</EPOCH><MEAN_MOTION>14.37172222</MEAN_MOTION><ECCENTRICITY>.0001915</ECCENTRICITY><INCLINATION>44.9947</INCLINATION><RA_OF_ASC_NODE>291.8741</RA_OF_ASC_NODE><ARG_OF_PERICENTER>183.7110</ARG_OF_PERICENTER><MEAN_ANOMALY>176.3724</MEAN_ANOMALY></meanElements><tleParameters><EPHEMERIS_TYPE>0</EPHEMERIS_TYPE><CLASSIFICATION_TYPE>U</CLASSIFICATION_TYPE><NORAD_CAT_ID>25416</NORAD_CAT_ID><ELEMENT_SET_NO>999</ELEMENT_SET_NO><REV_AT_EPOCH>40090</REV_AT_EPOCH><BSTAR>.27588E-3</BSTAR><MEAN_MOTION_DOT>.686E-5</MEAN_MOTION_DOT><MEAN_MOTION_DDOT>0</MEAN_MOTION_DDOT></tleParameters></data></segment></body></omm>
<omm id="CCSDS_OMM_VERS" version="2.0">
<header><CREATION_DATE/><ORIGINATOR/></header><body><segment><metadata><OBJECT_NAME>ORBCOMM FM16</OBJECT_NAME><OBJECT_ID>1998-046E</OBJECT_ID><CENTER_NAME>EARTH</CENTER_NAME><REF_FRAME>TEME</REF_FRAME><TIME_SYSTEM>UTC</TIME_SYSTEM><MEAN_ELEMENT_THEORY>SGP4</MEAN_ELEMENT_THEORY></metadata><data><meanElements><EPOCH>2025-05-24T20:31:24.769920</EPOCH><MEAN_MOTION>14.38858025</MEAN_MOTION><ECCENTRICITY>.0005812</ECCENTRICITY><INCLINATION>44.9942</INCLINATION><RA_OF_ASC_NODE>283.6389</RA_OF_ASC_NODE><ARG_OF_PERICENTER>185.1336</ARG_OF_PERICENTER><MEAN_ANOMALY>174.9453</MEAN_ANOMALY></meanElements><tleParameters><EPHEMERIS_TYPE>0</EPHEMERIS_TYPE><CLASSIFICATION_TYPE>U</CLASSIFICATION_TYPE><NORAD_CAT_ID>25417</NORAD_CAT_ID><ELEMENT_SET_NO>999</ELEMENT_SET_NO><REV_AT_EPOCH>40089</REV_AT_EPOCH><BSTAR>.35825E-3</BSTAR><MEAN_MOTION_DOT>.97E-5</MEAN_MOTION_DOT><MEAN_MOTION_DDOT>0</MEAN_MOTION_DDOT></tleParameters></data></segment></body></omm>
<omm id="CCSDS_OMM_VERS" version="2.0">
<header><CREATION_DATE/><ORIGINATOR/></header><body><segment><metadata><OBJECT_NAME>ORBCOMM FM15</OBJECT_NAME><OBJECT_ID>1998-046F</OBJECT_ID><CENTER_NAME>EARTH</CENTER_NAME><REF_FRAME>TEME</REF_FRAME><TIME_SYSTEM>UTC</TIME_SYSTEM><MEAN_ELEMENT_THEORY>SGP4</MEAN_ELEMENT_THEORY></metadata><data><meanElements><EPOCH>2025-05-24T19:48:44.634240</EPOCH><MEAN_MOTION>14.38504520</MEAN_MOTION><ECCENTRICITY>.0005387</ECCENTRICITY><INCLINATION>44.9975</INCLINATION><RA_OF_ASC_NODE>288.8543</RA_OF_ASC_NODE><ARG_OF_PERICENTER>184.8859</ARG_OF_PERICENTER><MEAN_ANOMALY>175.1938</MEAN_ANOMALY></meanElements><tleParameters><EPHEMERIS_TYPE>0</EPHEMERIS_TYPE><CLASSIFICATION_TYPE>U</CLASSIFICATION_TYPE><NORAD_CAT_ID>25418</NORAD_CAT_ID><ELEMENT_SET_NO>999</ELEMENT_SET_NO><REV_AT_EPOCH>40088</REV_AT_EPOCH><BSTAR>.30516E-3</BSTAR><MEAN_MOTION_DOT>.799E-5</MEAN_MOTION_DOT><MEAN_MOTION_DDOT>0</MEAN_MOTION_DDOT></tleParameters></data></segment></body></omm>
<omm id="CCSDS_OMM_VERS" version="2.0">
<header><CREATION_DATE/><ORIGINATOR/></header><body><segment><metadata><OBJECT_NAME>ORBCOMM FM14</OBJECT_NAME><OBJECT_ID>1998-046G</OBJECT_ID><CENTER_NAME>EARTH</CENTER_NAME><REF_FRAME>TEME</REF_FRAME><TIME_SYSTEM>UTC</TIME_SYSTEM><MEAN_ELEMENT_THEORY>SGP4</MEAN_ELEMENT_THEORY></metadata><data><meanElements><EPOCH>2025-05-24T20:22:45.888672</EPOCH><MEAN_MOTION>14.38860656</MEAN_MOTION><ECCENTRICITY>.0004203</ECCENTRICITY><INCLINATION>44.9964</INCLINATION><RA_OF_ASC_NODE>287.0460</RA_OF_ASC_NODE><ARG_OF_PERICENTER>181.5615</ARG_OF_PERICENTER><MEAN_ANOMALY>178.5221</MEAN_ANOMALY></meanElements><tleParameters><EPHEMERIS_TYPE>0</EPHEMERIS_TYPE><CLASSIFICATION_TYPE>U</CLASSIFICATION_TYPE><NORAD_CAT_ID>25419</NORAD_CAT_ID><ELEMENT_SET_NO>999</ELEMENT_SET_NO><REV_AT_EPOCH>40085</REV_AT_EPOCH><BSTAR>.3223E-3</BSTAR><MEAN_MOTION_DOT>.859E-5</MEAN_MOTION_DOT><MEAN_MOTION_DDOT>0</MEAN_MOTION_DDOT></tleParameters></data></segment></body></omm>
<omm id="CCSDS_OMM_VERS" version="2.0">
<header><CREATION_DATE/><ORIGINATOR/></header><body><segment><metadata><OBJECT_NAME>ORBCOMM FM13</OBJECT_NAME><OBJECT_ID>1998-046H</OBJECT_ID><CENTER_NAME>EARTH</CENTER_NAME><REF_FRAME>TEME</REF_FRAME><TIME_SYSTEM>UTC</TIME_SYSTEM><MEAN_ELEMENT_THEORY>SGP4</MEAN_ELEMENT_THEORY></metadata><data><meanElements><EPOCH>2025-05-24T19:17:57.950880</EPOCH><MEAN_MOTION>14.37627707</MEAN_MOTION><ECCENTRICITY>.0006056</ECCENTRICITY><INCLINATION>44.9979</INCLINATION><RA_OF_ASC_NODE>295.0098</RA_OF_ASC_NODE><ARG_OF_PERICENTER>166.1132</ARG_OF_PERICENTER><MEAN_ANOMALY>193.9883</MEAN_ANOMALY></meanElements><tleParameters><EPHEMERIS_TYPE>0</EPHEMERIS_TYPE><CLASSIFICATION_TYPE>U</CLASSIFICATION_TYPE><NORAD_CAT_ID>25420</NORAD_CAT_ID><ELEMENT_SET_NO>999</ELEMENT_SET_NO><REV_AT_EPOCH>39987</REV_AT_EPOCH><BSTAR>.31746E-3</BSTAR><MEAN_MOTION_DOT>.82E-5</MEAN_MOTION_DOT><MEAN_MOTION_DDOT>0</MEAN_MOTION_DDOT></tleParameters></data></segment></body></omm>
<omm id="CCSDS_OMM_VERS" version="2.0">
<header><CREATION_DATE/><ORIGINATOR/></header><body><segment><metadata><OBJECT_NAME>ORBCOMM FM21</OBJECT_NAME><OBJECT_ID>1998-053A</OBJECT_ID><CENTER_NAME>EARTH</CENTER_NAME><REF_FRAME>TEME</REF_FRAME><TIME_SYSTEM>UTC</TIME_SYSTEM><MEAN_ELEMENT_THEORY>SGP4</MEAN_ELEMENT_THEORY></metadata><data><meanElements><EPOCH>2025-05-24T20:59:40.485696</EPOCH><MEAN_MOTION>14.37307092</MEAN_MOTION><ECCENTRICITY>.0001568</ECCENTRICITY><INCLINATION>45.0098</INCLINATION><RA_OF_ASC_NODE>19.8892</RA_OF_ASC_NODE><ARG_OF_PERICENTER>77.5890</ARG_OF_PERICENTER><MEAN_ANOMALY>282.5134</MEAN_ANOMALY></meanElements><tleParameters><EPHEMERIS_TYPE>0</EPHEMERIS_TYPE><CLASSIFICATION_TYPE>U</CLASSIFICATION_TYPE><NORAD_CAT_ID>25475</NORAD_CAT_ID><ELEMENT_SET_NO>999</ELEMENT_SET_NO><REV_AT_EPOCH>39389</REV_AT_EPOCH><BSTAR>.30108E-3</BSTAR><MEAN_MOTION_DOT>.764E-5</MEAN_MOTION_DOT><MEAN_MOTION_DDOT>0</MEAN_MOTION_DDOT></tleParameters></data></segment></body></omm>
<omm id="CCSDS_OMM_VERS" version="2.0">
<header><CREATION_DATE/><ORIGINATOR/></header><body><segment><metadata><OBJECT_NAME>ORBCOMM FM22</OBJECT_NAME><OBJECT_ID>1998-053B</OBJECT_ID><CENTER_NAME>EARTH</CENTER_NAME><REF_FRAME>TEME</REF_FRAME><TIME_SYSTEM>UTC</TIME_SYSTEM><MEAN_ELEMENT_THEORY>SGP4</MEAN_ELEMENT_THEORY></metadata><data><meanElements><EPOCH>2025-05-24T22:17:07.194336</EPOCH><MEAN_MOTION>14.38334325</MEAN_MOTION><ECCENTRICITY>.0003371</ECCENTRICITY><INCLINATION>45.0088</INCLINATION><RA_OF_ASC_NODE>14.6738</RA_OF_ASC_NODE><ARG_OF_PERICENTER>95.8003</ARG_OF_PERICENTER><MEAN_ANOMALY>264.3230</MEAN_ANOMALY></meanElements><tleParameters><EPHEMERIS_TYPE>0</EPHEMERIS_TYPE><CLASSIFICATION_TYPE>U</CLASSIFICATION_TYPE><NORAD_CAT_ID>25476</NORAD_CAT_ID><ELEMENT_SET_NO>999</ELEMENT_SET_NO><REV_AT_EPOCH>39392</REV_AT_EPOCH><BSTAR>.34638E-3</BSTAR><MEAN_MOTION_DOT>.922E-5</MEAN_MOTION_DOT><MEAN_MOTION_DDOT>0</MEAN_MOTION_DDOT></tleParameters></data></segment></body></omm>
<omm id="CCSDS_OMM_VERS" version="2.0">
<header><CREATION_DATE/><ORIGINATOR/></header><body><segment><metadata><OBJECT_NAME>ORBCOMM FM23</OBJECT_NAME><OBJECT_ID>1998-053C</OBJECT_ID><CENTER_NAME>EARTH</CENTER_NAME><REF_FRAME>TEME</REF_FRAME><TIME_SYSTEM>UTC</TIME_SYSTEM><MEAN_ELEMENT_THEORY>SGP4</MEAN_ELEMENT_THEORY></metadata><data><meanElements><EPOCH>2025-05-24T22:45:00.880704</EPOCH><MEAN_MOTION>14.37485105</MEAN_MOTION><ECCENTRICITY>.0002539</ECCENTRICITY><INCLINATION>45.0096</INCLINATION><RA_OF_ASC_NODE>21.6984</RA_OF_ASC_NODE><ARG_OF_PERICENTER>84.7316</ARG_OF_PERICENTER><MEAN_ANOMALY>275.3822</MEAN_ANOMALY></meanElements><tleParameters><EPHEMERIS_TYPE>0</EPHEMERIS_TYPE><CLASSIFICATION_TYPE>U</CLASSIFICATION_TYPE><NORAD_CAT_ID>25477</NORAD_CAT_ID><ELEMENT_SET_NO>999</ELEMENT_SET_NO><REV_AT_EPOCH>39405</REV_AT_EPOCH><BSTAR>.32238E-3</BSTAR><MEAN_MOTION_DOT>.832E-5</MEAN_MOTION_DOT><MEAN_MOTION_DDOT>0</MEAN_MOTION_DDOT></tleParameters></data></segment></body></omm>

</ndm>
